{
  "type": "FeatureCollection",
  "features": [
    {
      "type": "Feature",
      "properties": {
        "norad_id": 33901,
        "name": "COSMOS 2251 DEB",
        "group": "cosmos-2251-debris",
        "lat": -11.627497033365303,
        "lon": 39.75561253083959,
        "alt_km": 542.5573088707342,
        "timestamp": "2025-12-15T14:57:58.204955+00:00",
        "meta_object_name": "COSMOS 2251 DEB",
        "meta_object_id": "1993-036DE",
        "meta_epoch": "2025-12-14T21:36:03.633984",
        "meta_mean_motion": 15.16224927,
        "meta_eccentricity": 0.00312643,
        "meta_inclination": 73.7745,
        "meta_ra_of_asc_node": 44.7223,
        "meta_arg_of_pericenter": 176.76,
        "meta_mean_anomaly": 183.3803,
        "meta_ephemeris_type": 0,
        "meta_classification_type": "U",
        "meta_norad_cat_id": 33901,
        "meta_element_set_no": 999,
        "meta_rev_at_epoch": 89546,
        "meta_bstar": 0.0018504099,
        "meta_mean_motion_dot": 0.00036363,
        "meta_mean_motion_ddot": 0,
        "tle_line1": "1 33901U 93036DE  25348.90004206  .00036363  00000+0  18504-2 0  9990",
        "tle_line2": "2 33901  73.7745  44.7223 0031264 176.7600 183.3803 15.16224927895463"
      },
      "geometry": {
        "type": "Point",
        "coordinates": [
          39.75561253083959,
          -11.627497033365303
        ]
      }
    },
    {
      "type": "Feature",
      "properties": {
        "norad_id": 33905,
        "name": "COSMOS 2251 DEB",
        "group": "cosmos-2251-debris",
        "lat": -49.277052542061796,
        "lon": -68.31413329628577,
        "alt_km": 792.8306967593644,
        "timestamp": "2025-12-15T14:57:58.204964+00:00",
        "meta_object_name": "COSMOS 2251 DEB",
        "meta_object_id": "1993-036DJ",
        "meta_epoch": "2025-12-14T22:44:52.702080",
        "meta_mean_motion": 14.35395413,
        "meta_eccentricity": 0.00587264,
        "meta_inclination": 73.8871,
        "meta_ra_of_asc_node": 312.5571,
        "meta_arg_of_pericenter": 201.6367,
        "meta_mean_anomaly": 215.1718,
        "meta_ephemeris_type": 0,
        "meta_classification_type": "U",
        "meta_norad_cat_id": 33905,
        "meta_element_set_no": 999,
        "meta_rev_at_epoch": 87719,
        "meta_bstar": 0.00056396237,
        "meta_mean_motion_dot": 1.624e-05,
        "meta_mean_motion_ddot": 0,
        "tle_line1": "1 33905U 93036DJ  25348.94783220  .00001624  00000+0  56396-3 0  9992",
        "tle_line2": "2 33905  73.8871 312.5571 0058726 201.6367 215.1718 14.35395413877198"
      },
      "geometry": {
        "type": "Point",
        "coordinates": [
          -68.31413329628577,
          -49.277052542061796
        ]
      }
    },
    {
      "type": "Feature",
      "properties": {
        "norad_id": 33906,
        "name": "COSMOS 2251 DEB",
        "group": "cosmos-2251-debris",
        "lat": 54.47526675693809,
        "lon": -20.35847090625095,
        "alt_km": 689.2067260491376,
        "timestamp": "2025-12-15T14:57:58.204973+00:00",
        "meta_object_name": "COSMOS 2251 DEB",
        "meta_object_id": "1993-036DK",
        "meta_epoch": "2025-12-14T22:19:12.154656",
        "meta_mean_motion": 14.57136024,
        "meta_eccentricity": 0.00367402,
        "meta_inclination": 74.0302,
        "meta_ra_of_asc_node": 317.3119,
        "meta_arg_of_pericenter": 346.3904,
        "meta_mean_anomaly": 34.2359,
        "meta_ephemeris_type": 0,
        "meta_classification_type": "U",
        "meta_norad_cat_id": 33906,
        "meta_element_set_no": 999,
        "meta_rev_at_epoch": 88040,
        "meta_bstar": 0.0013397236,
        "meta_mean_motion_dot": 6.073e-05,
        "meta_mean_motion_ddot": 0,
        "tle_line1": "1 33906U 93036DK  25348.93000179  .00006073  00000+0  13397-2 0  9993",
        "tle_line2": "2 33906  74.0302 317.3119 0036740 346.3904  34.2359 14.57136024880402"
      },
      "geometry": {
        "type": "Point",
        "coordinates": [
          -20.35847090625095,
          54.47526675693809
        ]
      }
    },
    {
      "type": "Feature",
      "properties": {
        "norad_id": 33907,
        "name": "COSMOS 2251 DEB",
        "group": "cosmos-2251-debris",
        "lat": 60.69121378207507,
        "lon": 177.8350911947251,
        "alt_km": 715.1733335475092,
        "timestamp": "2025-12-15T14:57:58.204982+00:00",
        "meta_object_name": "COSMOS 2251 DEB",
        "meta_object_id": "1993-036DL",
        "meta_epoch": "2025-12-14T09:58:18.011136",
        "meta_mean_motion": 14.3052573,
        "meta_eccentricity": 0.01120315,
        "meta_inclination": 74.0707,
        "meta_ra_of_asc_node": 30.6082,
        "meta_arg_of_pericenter": 85.5925,
        "meta_mean_anomaly": 289.4829,
        "meta_ephemeris_type": 0,
        "meta_classification_type": "U",
        "meta_norad_cat_id": 33907,
        "meta_element_set_no": 999,
        "meta_rev_at_epoch": 86604,
        "meta_bstar": 0.0016400573,
        "meta_mean_motion_dot": 4.556e-05,
        "meta_mean_motion_ddot": 0,
        "tle_line1": "1 33907U 93036DL  25348.41548624  .00004556  00000+0  16401-2 0  9992",
        "tle_line2": "2 33907  74.0707  30.6082 0112031  85.5925 289.4829 14.30525730866046"
      },
      "geometry": {
        "type": "Point",
        "coordinates": [
          177.8350911947251,
          60.69121378207507
        ]
      }
    },
    {
      "type": "Feature",
      "properties": {
        "norad_id": 33908,
        "name": "COSMOS 2251 DEB",
        "group": "cosmos-2251-debris",
        "lat": -73.22861470589005,
        "lon": 94.85159909605221,
        "alt_km": 753.4166190317928,
        "timestamp": "2025-12-15T14:57:58.204991+00:00",
        "meta_object_name": "COSMOS 2251 DEB",
        "meta_object_id": "1993-036DM",
        "meta_epoch": "2025-12-14T22:21:14.956704",
        "meta_mean_motion": 14.07359763,
        "meta_eccentricity": 0.02229224,
        "meta_inclination": 73.838,
        "meta_ra_of_asc_node": 201.8766,
        "meta_arg_of_pericenter": 224.9974,
        "meta_mean_anomaly": 133.2914,
        "meta_ephemeris_type": 0,
        "meta_classification_type": "U",
        "meta_norad_cat_id": 33908,
        "meta_element_set_no": 999,
        "meta_rev_at_epoch": 85504,
        "meta_bstar": 0.0014603834,
        "meta_mean_motion_dot": 3.053e-05,
        "meta_mean_motion_ddot": 0,
        "tle_line1": "1 33908U 93036DM  25348.93142311  .00003053  00000+0  14604-2 0  9997",
        "tle_line2": "2 33908  73.8380 201.8766 0222922 224.9974 133.2914 14.07359763855040"
      },
      "geometry": {
        "type": "Point",
        "coordinates": [
          94.85159909605221,
          -73.22861470589005
        ]
      }
    },
    {
      "type": "Feature",
      "properties": {
        "norad_id": 33911,
        "name": "COSMOS 2251 DEB",
        "group": "cosmos-2251-debris",
        "lat": 12.463258345992351,
        "lon": 159.85182216062907,
        "alt_km": 644.8205329306229,
        "timestamp": "2025-12-15T14:57:58.205000+00:00",
        "meta_object_name": "COSMOS 2251 DEB",
        "meta_object_id": "1993-036DQ",
        "meta_epoch": "2025-12-14T21:34:48.871200",
        "meta_mean_motion": 14.74914651,
        "meta_eccentricity": 0.00141309,
        "meta_inclination": 74.0901,
        "meta_ra_of_asc_node": 157.6475,
        "meta_arg_of_pericenter": 96.3112,
        "meta_mean_anomaly": 32.1081,
        "meta_ephemeris_type": 0,
        "meta_classification_type": "U",
        "meta_norad_cat_id": 33911,
        "meta_element_set_no": 999,
        "meta_rev_at_epoch": 88676,
        "meta_bstar": 0.0013685388,
        "meta_mean_motion_dot": 9.184e-05,
        "meta_mean_motion_ddot": 0,
        "tle_line1": "1 33911U 93036DQ  25348.89917675  .00009184  00000+0  13685-2 0  9998",
        "tle_line2": "2 33911  74.0901 157.6475 0014130  96.3112  32.1081 14.74914651886768"
      },
      "geometry": {
        "type": "Point",
        "coordinates": [
          159.85182216062907,
          12.463258345992351
        ]
      }
    },
    {
      "type": "Feature",
      "properties": {
        "norad_id": 33912,
        "name": "COSMOS 2251 DEB",
        "group": "cosmos-2251-debris",
        "lat": 20.731358955133807,
        "lon": -169.4859798562883,
        "alt_km": 722.8871184386462,
        "timestamp": "2025-12-15T14:57:58.205008+00:00",
        "meta_object_name": "COSMOS 2251 DEB",
        "meta_object_id": "1993-036DR",
        "meta_epoch": "2025-12-14T22:55:27.632352",
        "meta_mean_motion": 14.5190845,
        "meta_eccentricity": 0.00114297,
        "meta_inclination": 74.0334,
        "meta_ra_of_asc_node": 185.5517,
        "meta_arg_of_pericenter": 264.498,
        "meta_mean_anomaly": 224.8287,
        "meta_ephemeris_type": 0,
        "meta_classification_type": "U",
        "meta_norad_cat_id": 33912,
        "meta_element_set_no": 999,
        "meta_rev_at_epoch": 88465,
        "meta_bstar": 0.00056240111,
        "meta_mean_motion_dot": 2.242e-05,
        "meta_mean_motion_ddot": 0,
        "tle_line1": "1 33912U 93036DR  25348.95518093  .00002242  00000+0  56240-3 0  9990",
        "tle_line2": "2 33912  74.0334 185.5517 0011429 264.4980 224.8287 14.51908450884654"
      },
      "geometry": {
        "type": "Point",
        "coordinates": [
          -169.4859798562883,
          20.731358955133807
        ]
      }
    }
  ]
}